     3.01           N: GNSS NAV DATA    M: Mixed            RINEX VERSION / TYPE
CONVBIN demo5 b34f.1                    20220527 015946 UTC PGM / RUN BY / DATE 
log: /home/igor/git/flutter_rtklib/test/data/rcvraw/GMSD7_20COMMENT             
format: RTCM 3                                              COMMENT             
format: RTCM 3                                              COMMENT             
log: /home/igor/git/flutter_rtklib/test/data/rcvraw/GMSD7_20COMMENT             
                                                            END OF HEADER       
G28 2012 10 13 23 59 44  .194718595594D-03  .363797880709D-11  .000000000000D+00
      .600000000000D+01  .673125000000D+02  .409052752975D-08  .179381292294D+01
      .326335430145D-05  .181625665864D-01  .886991620064D-05  .515363082123D+04
      .604784000000D+06 -.838190317154D-07  .625464088473D+00 -.497326254845D-06
      .980726116368D+00  .216781250000D+03 -.181862885728D+01 -.784389815841D-08
      .655741599984D-09  .100000000000D+01  .170900000000D+04  .000000000000D+00
      .200000000000D+01  .000000000000D+00 -.107102096081D-07  .600000000000D+01
      .604798000000D+06  .400000000000D+01
R01 2012 10 13 23 45 00 -.176271423697D-03  .000000000000D+00  .603180000000D+06
     -.190156445312D+05 -.226567268372D+00 -.186264514923D-08  .000000000000D+00
     -.169415625000D+05 -.878715515137D-02  .372529029846D-08  .100000000000D+01
     -.124532617188D+04  .356013107300D+01  .000000000000D+00  .000000000000D+00
G29 2012 10 14 00 00 00  .365832820535D-03  .420641299570D-11  .000000000000D+00
      .830000000000D+02 -.460312500000D+02  .485413076546D-08 -.235480385928D+01
     -.233016908169D-05  .177741050720D-02  .456906855106D-05  .515376247787D+04
      .000000000000D+00 -.167638063431D-07  .154653317799D+01  .521540641785D-07
      .963933123204D+00  .290437500000D+03 -.106854445376D+01 -.836606276581D-08
     -.253224833545D-09  .100000000000D+01  .171000000000D+04  .000000000000D+00
      .200000000000D+01  .000000000000D+00 -.931322574615D-08  .830000000000D+02
      .130000000000D+02  .400000000000D+01
R02 2012 10 13 23 45 00 -.337254256010D-03 -.181898940355D-11  .604530000000D+06
     -.178307968750D+05 -.182051658630D+01 -.372529029846D-08  .000000000000D+00
     -.493887646484D+04 -.157190322876D+01  .186264514923D-08 -.400000000000D+01
     -.175432973633D+05  .229297542572D+01  .186264514923D-08  .000000000000D+00
G30 2012 10 14 00 00 00 -.365928746760D-03  .181898940355D-10  .000000000000D+00
      .990000000000D+02  .677812500000D+02  .456197573889D-08  .995986795008D+00
      .340864062309D-05  .110732550966D-01  .100005418062D-04  .515372302818D+04
      .000000000000D+00 -.726431608200D-07  .352475382540D+00 -.145286321640D-06
      .961670110357D+00  .190250000000D+03  .161377927232D+01 -.827534470132D-08
      .587167315018D-09  .100000000000D+01  .171000000000D+04  .000000000000D+00
      .160000000000D+02  .000000000000D+00 -.465661287308D-08  .990000000000D+02
      .280000000000D+02  .400000000000D+01
R03 2012 10 13 23 45 00 -.124136917293D-03  .000000000000D+00  .604530000000D+06
     -.663864062500D+04 -.230687046051D+01 -.279396772385D-08  .000000000000D+00
      .869856347656D+04 -.216170120239D+01  .000000000000D+00  .500000000000D+01
     -.229974643555D+05 -.152439117432D+00  .279396772385D-08  .000000000000D+00
G31 2012 10 14 02 00 00  .280526466668D-03  .238742359215D-11  .000000000000D+00
      .330000000000D+02 -.633750000000D+02  .383623122300D-08 -.636344072091D+00
     -.335462391376D-05  .788344920147D-02  .129826366901D-04  .515374769592D+04
      .720000000000D+04 -.100582838058D-06 -.572766382362D+00 -.670552253723D-07
      .981084936526D+00  .142812500000D+03 -.855940038070D+00 -.777710966212D-08
     -.243938732456D-09  .100000000000D+01  .171000000000D+04  .000000000000D+00
      .200000000000D+01  .000000000000D+00 -.135041773319D-07  .330000000000D+02
      .430000000000D+02  .400000000000D+01
R04 2012 10 14 00 15 00  .221468508244D-04  .000000000000D+00  .000000000000D+00
      .553640283203D+04 -.214269828796D+01 -.931322574615D-09  .000000000000D+00
      .153125112305D+05 -.163022232056D+01 -.931322574615D-09  .600000000000D+01
     -.196143779297D+05 -.187555980682D+01  .279396772385D-08  .000000000000D+00
G32 2012 10 14 02 00 00 -.497915316373D-03 -.386535248253D-11  .000000000000D+00
      .510000000000D+02  .108937500000D+03  .517485841077D-08 -.287020445611D-01
      .565685331821D-05  .118402462685D-01  .662729144096D-05  .515355416679D+04
      .720000000000D+04  .134110450745D-06 -.260139526909D+01 -.160187482834D-06
      .950919830519D+00  .248812500000D+03 -.497148920728D+00 -.869929093181D-08
      .575738267524D-09  .100000000000D+01  .171000000000D+04  .000000000000D+00
      .200000000000D+01  .000000000000D+00 -.325962901115D-08  .510000000000D+02
      .570000000000D+02  .400000000000D+01
R05 2012 10 14 00 15 00 -.172426924109D-03  .000000000000D+00  .000000000000D+00
      .187569218750D+05 -.502102851868D+00  .931322574615D-09  .000000000000D+00
      .164722182617D+05 -.536643028259D+00 -.279396772385D-08  .100000000000D+01
     -.526610498047D+04 -.346842670441D+01  .931322574615D-09  .000000000000D+00
R06 2012 10 14 00 15 00  .200839713216D-04  .000000000000D+00  .300000000000D+02
      .209712412109D+05  .144175052643D+01  .372529029846D-08  .000000000000D+00
      .771050048828D+04  .875787734985D+00 -.279396772385D-08 -.400000000000D+01
      .122689023438D+05 -.301505851746D+01  .000000000000D+00  .000000000000D+00
G01 2012 10 14 01 59 44  .277694314718D-03  .170530256582D-11  .000000000000D+00
      .600000000000D+01 -.287500000000D+02  .433160900033D-08 -.221936690497D+00
     -.145658850670D-05  .130163924769D-02  .136699527502D-04  .515364444923D+04
      .718400000000D+04  .484287738800D-07  .254607102670D+01 -.223517417908D-07
      .960411140613D+00  .115468750000D+03  .450450103306D+00 -.792104422900D-08
     -.322870591713D-09  .100000000000D+01  .171000000000D+04  .000000000000D+00
      .200000000000D+01  .000000000000D+00  .838190317154D-08  .600000000000D+01
      .870000000000D+02  .400000000000D+01
G02 2012 10 14 02 00 00  .405862927437D-03  .113686837722D-11  .000000000000D+00
      .730000000000D+02 -.398750000000D+02  .490770442559D-08  .748106785513D+00
     -.204704701900D-05  .114955145400D-01  .121481716633D-04  .515377646828D+04
      .720000000000D+04 -.707805156708D-07  .252934971067D+01  .249594449997D-06
      .938920787717D+00  .137250000000D+03 -.273181172409D+01 -.822998566908D-08
     -.388587614805D-09  .100000000000D+01  .171000000000D+04  .000000000000D+00
      .200000000000D+01  .000000000000D+00 -.176951289177D-07  .730000000000D+02
      .103000000000D+03  .400000000000D+01
R07 2012 10 14 00 15 00 -.391704961658D-04  .000000000000D+00  .600000000000D+02
      .110245107422D+05  .251642990112D+01  .372529029846D-08  .000000000000D+00
     -.518399414062D+04  .174770736694D+01 -.931322574615D-09  .500000000000D+01
      .224482143555D+05 -.834438323975D+00 -.186264514923D-08  .000000000000D+00
G03 2012 10 14 02 00 00  .114296097308D-03  .500222085975D-11  .000000000000D+00
      .103000000000D+03 -.170937500000D+02  .581309928178D-08  .923111579165D+00
     -.976026058197D-06  .158753633732D-01  .369548797607D-05  .515373668289D+04
      .720000000000D+04 -.236555933952D-06  .136281848901D+01 -.204890966415D-07
      .931940144945D+00  .297375000000D+03  .124484928566D+01 -.914573809956D-08
     -.221437795202D-09  .100000000000D+01  .171000000000D+04  .000000000000D+00
      .280000000000D+01  .000000000000D+00 -.465661287308D-08  .103000000000D+03
      .117000000000D+03  .400000000000D+01
R08 2012 10 14 00 15 00 -.682445243001D-04  .000000000000D+00  .300000000000D+02
     -.210226777344D+05 -.141788482666D+01 -.279396772385D-08  .000000000000D+00
     -.808247509766D+04 -.836858749390D+00  .372529029846D-08 -.600000000000D+01
     -.119010747070D+05  .306043243408D+01  .931322574615D-09  .000000000000D+00
G04 2012 10 14 02 00 00  .154427252710D-04  .112549969344D-10  .000000000000D+00
      .690000000000D+02 -.395000000000D+02  .472876840076D-08 -.225839566923D+01
     -.232644379139D-05  .103370923316D-01  .128336250782D-04  .515368155289D+04
      .720000000000D+04  .819563865662D-07  .254605987780D+01 -.968575477600D-07
      .937986236149D+00  .113562500000D+03  .913911069390D+00 -.799640451092D-08
     -.207151485834D-09  .100000000000D+01  .171000000000D+04  .000000000000D+00
      .200000000000D+01  .000000000000D+00 -.651925802231D-08  .690000000000D+02
      .133000000000D+03  .400000000000D+01
R09 2012 10 14 00 15 00 -.244723632932D-04  .000000000000D+00  .900000000000D+02
      .225202514648D+05 -.145996475220D+01  .465661287308D-08  .000000000000D+00
     -.432080175781D+04  .461312294006D+00 -.186264514923D-08 -.200000000000D+01
      .110628564453D+05  .315440082550D+01  .000000000000D+00  .000000000000D+00
G05 2012 10 14 02 00 00 -.359286088496D-03 -.272848410532D-11  .000000000000D+00
      .660000000000D+02  .112718750000D+03  .491877631535D-08  .289457093960D+01
      .594742596149D-05  .298124353867D-02  .823289155960D-05  .515377031136D+04
      .720000000000D+04 -.856816768646D-07 -.269031171961D+01 -.447034835815D-07
      .950385783497D+00  .215843750000D+03  .230430509899D+00 -.826570144250D-08
      .536450916763D-09  .100000000000D+01  .171000000000D+04  .000000000000D+00
      .200000000000D+01  .000000000000D+00 -.102445483208D-07  .660000000000D+02
      .147000000000D+03  .400000000000D+01
R10 2012 10 14 00 15 00 -.590914860368D-04  .909494701773D-12  .900000000000D+02
      .215397968750D+05  .590850830078D+00  .558793544769D-08  .000000000000D+00
     -.125748271484D+05 -.540477752686D+00 -.186264514923D-08 -.700000000000D+01
     -.558504443359D+04  .349710178375D+01  .931322574615D-09  .000000000000D+00
